1  8820U 76039A   19031.44338249 -.00000016  00000-0  00000+0 0  9991
2  8820 109.8606 336.6195 0044580 159.2193 316.0621  6.38664967741527
1  8820U 76039A   19031.83179361 -.00000017 +00000-0 +00000-0 0  9994
2  8820 109.8606 336.7527 0044579 159.1379 129.0933 06.38664971741444
1  8820U 76039A   19032.68482035 -.00000017 +00000-0 +00000-0 0  9993
2  8820 109.8607 337.0450 0044577 158.9577 290.3657 06.38664976741506
1  8820U 76039A   19033.50718442 -.00000016  00000-0  00000+0 0  9997
2  8820 109.8608 337.3268 0044575 158.7791  21.1436  6.38664982741659
1  8820U 76039A   19034.83351882 -.00000011 +00000-0 +00000-0 0  9991
2  8820 109.8609 337.7814 0044572 158.4977 190.6426 06.38664989741637
1  8820U 76039A   19035.52312573 -.00000009  00000-0  00000+0 0  9998
2  8820 109.8609 338.0178 0044571 158.3502 336.1832  6.38664991741783
1  8820U 76039A   19036.96007184 -.00000002 +00000-0 +00000-0 0  9990
2  8820 109.8610 338.5102 0044567 158.0463 039.9990 06.38664995741771
1  8820U 76039A   19037.55527836 -.00000000  00000-0  00000+0 0  9994
2  8820 109.8610 338.7142 0044566 157.9188 328.4950  6.38664996741917
1  8820U 76039A   19037.77549845 +.00000001 +00000-0 +00000-0 0  9993
2  8820 109.8611 338.7897 0044565 157.8725 114.8232 06.38664996741820
1  8820U 76039A   19038.51854110 +.00000003 +00000-0 +00000-0 0  9992
2  8820 109.8611 339.0444 0044564 157.7134 023.2233 06.38664995741872
1  8820U 76039A   19038.76433171 +.00000004 +00000-0 +00000-0 0  9990
2  8820 109.8612 339.1286 0044563 157.6610 228.3436 06.38664996741891
1  8820U 76039A   19039.78378267  .00000005  00000-0  00000+0 0  9997
2  8820 109.8613 339.4780 0044560 157.4448  52.2583  6.38664996742054
1  8820U 76039A   19039.90712297 +.00000005 +00000-0 +00000-0 0  9997
2  8820 109.8613 339.5203 0044559 157.4188 335.8413 06.38664996741965
1  8820U 76039A   19040.01313691 +.00000006 +00000-0 +00000-0 0  9997
2  8820 109.8613 339.5566 0044560 157.3964 219.5877 06.38664995741972
1  8820U 76039A   19040.75001966 +.00000006 +00000-0 +00000-0 0  9997
2  8820 109.8614 339.8092 0044558 157.2388 113.8248 06.38664994742019
1  8820U 76039A   19041.63571920 +.00000005 +00000-0 +00000-0 0  9996
2  8820 109.8614 340.1127 0044556 157.0477 350.2223 06.38664990742070
1  8820U 76039A   19042.03963983  .00000005  00000-0  00000+0 0  9994
2  8820 109.8615 340.2512 0044556 156.9600 198.9158  6.38664989742191
1  8820U 76039A   19042.87870306 +.00000003 +00000-0 +00000-0 0  9991
2  8820 109.8615 340.5388 0044554 156.7798 328.0865 06.38664987742154
1  8820U 76039A   19043.85079946 +.00000001 +00000-0 +00000-0 0  9999
2  8820 109.8616 340.8720 0044552 156.5717 043.1257 06.38664983742218
1  8820U 76039A   19044.44206325 -.00000001  00000-0  00000+0 0  9998
2  8820 109.8617 341.0746 0044550 156.4457 322.5560  6.38664981742352
1  8820U 76039A   19044.90774997 -.00000002 +00000-0 +00000-0 0  9996
2  8820 109.8617 341.2342 0044549 156.3501 313.2565 06.38664979742284
1  8820U 76039A   19045.55365479 -.00000004 +00000-0 +00000-0 0  9991
2  8820 109.8617 341.4556 0044547 156.2146 358.3149 06.38664976742325
1  8820U 76039A   19045.85364861 -.00000005 +00000-0 +00000-0 0  9999
2  8820 109.8618 341.5584 0044546 156.1511 328.0586 06.38664975742342
1  8820U 76039A   19046.79370111 -.00000006  00000-0  00000+0 0  9998
2  8820 109.8618 341.8806 0044544 155.9500 329.4225  6.38664972742505
1  8820U 76039A   19047.92393935 -.00000007 +00000-0 +00000-0 0  9995
2  8820 109.8619 342.2680 0044542 155.7092 048.0595 06.38664969742479
1  8820U 76039A   19048.81851340 -.00000006  00000-0  00000+0 0  9991
2  8820 109.8619 342.5746 0044539 155.5192 304.8584  6.38664968742638
1  8820U 76039A   19049.72493213 -.00000005 +00000-0 +00000-0 0  9993
2  8820 109.8619 342.8853 0044537 155.3254 228.8916 06.38664968742594
1  8820U 76039A   19050.89953767 -.00000002  00000-0  00000+0 0  9994
2  8820 109.8620 343.2879 0044534 155.0763  49.5367  6.38664970742768
1  8820U 76039A   19051.83982198 -.00000000 +00000-0 +00000-0 0  9998
2  8820 109.8620 343.6102 0044532 154.8758 051.4329 06.38664972742728
1  8820U 76039A   19052.27349238 +.00000001 +00000-0 +00000-0 0  9999
2  8820 109.8621 343.7588 0044531 154.7829 328.5258 06.38664975742750
1  8820U 76039A   19052.77861920 +.00000001 +00000-0 +00000-0 0  9991
2  8820 109.8621 343.9320 0044529 154.6765 049.9093 06.38664977742787
1  8820U 76039A   19053.10442000  .00000001  00000-0  00000+0 0  9992
2  8820 109.8621 344.0436 0044529 154.6071  78.9886  6.38664979742905
1  8820U 76039A   19053.77763396 +.00000000 +00000-0 +00000-0 0  9999
2  8820 109.8621 344.2744 0044527 154.4625 186.8394 06.38664983742841
1  8820U 76039A   19054.72360618 -.00000002 +00000-0 +00000-0 0  9998
2  8820 109.8622 344.5986 0044525 154.2617 201.8123 06.38664990742903
1  8820U 76039A   19055.46993587 -.00000005  00000-0  00000+0 0  9999
2  8820 109.8622 344.8544 0044522 154.1029 117.7690  6.38664996743056
1  8820U 76039A   19055.91085439 -.00000007 +00000-0 +00000-0 0  9990
2  8820 109.8622 345.0056 0044521 154.0093 051.5260 06.38665000742982
1  8820U 76039A   19056.85095525 -.00000011 +00000-0 +00000-0 0  9996
2  8820 109.8623 345.3278 0044518 153.8110 052.9984 06.38665007743048
1  8820U 76039A   19057.50097300 -.00000014  00000-0  00000+0 0  9994
2  8820 109.8623 345.5506 0044516 153.6731 107.5149  6.38665012743180
1  8820U 76039A   19057.73784375 -.00000015 +00000-0 +00000-0 0  9996
2  8820 109.8623 345.6318 0044515 153.6241 292.1253 06.38665014743108
1  8820U 76039A   19058.54679712 -.00000018 +00000-0 +00000-0 0  9997
2  8820 109.8623 345.9091 0044512 153.4543 352.0635 06.38665021743152
1  8820U 76039A   19059.62366642 -.00000021 +00000-0 +00000-0 0  9996
2  8820 109.8624 346.2782 0044509 153.2255 307.9945 06.38665028743226
1  8820U 76039A   19060.42367878 -.00000021  00000-0  00000+0 0  9997
2  8820 109.8624 346.5524 0044507 153.0534 347.3799  6.38665033743376
1  8820U 76039A   19060.58143104 -.00000021 +00000-0 +00000-0 0  9999
2  8820 109.8624 346.6065 0044506 153.0223 350.0806 06.38665034743282
1  8820U 76039A   19060.94034690 -.00000020 +00000-0 +00000-0 0  9997
2  8820 109.8624 346.7295 0044505 152.9448 095.2988 06.38665036743308
1  8820U 76039A   19061.41614368 -.00000020 +00000-0 +00000-0 0  9996
2  8820 109.8624 346.8926 0044504 152.8421 109.2493 06.38665038743331
1  8820U 76039A   19061.65291972 -.00000019 +00000-0 +00000-0 0  9992
2  8820 109.8624 346.9738 0044503 152.7919 293.6432 06.38665038743356
1  8820U 76039A   19062.47177937 -.00000016  00000-0  00000+0 0  9993
2  8820 109.8624 347.2544 0044502 152.6133  16.3647  6.38665040743509
1  8820U 76039A   19062.83522941 -.00000015 +00000-0 +00000-0 0  9992
2  8820 109.8623 347.3790 0044501 152.5378 132.0050 06.38665042743428
1  8820U 76039A   19063.91835413 -.00000010 +00000-0 +00000-0 0  9998
2  8820 109.8623 347.7503 0044498 152.3059 102.3202 06.38665043743490
1  8820U 76039A   19064.47930022 -.00000008  00000-0  00000+0 0  9998
2  8820 109.8623 347.9426 0044497 152.1874 312.0432  6.38665042743638
1  8820U 76039A   19064.86489781 -.00000006 +00000-0 +00000-0 0  9991
2  8820 109.8623 348.0747 0044496 152.1068 118.6055 06.38665043743553
1  8820U 76039A   19065.80574424 -.00000002 +00000-0 +00000-0 0  9991
2  8820 109.8623 348.3972 0044494 151.9067 121.7938 06.38665043743612
1  8820U 76039A   19066.55759367 -.00000000  00000-0  00000+0 0  9992
2  8820 109.8623 348.6549 0044492 151.7463  50.4419  6.38665042743768
1  8820U 76039A   19067.73368209 +.00000003 +00000-0 +00000-0 0  9997
2  8820 109.8623 349.0580 0044489 151.4947 234.4987 06.38665038743745
1  8820U 76039A   19068.56755034  .00000003  00000-0  00000+0 0  9994
2  8820 109.8624 349.3439 0044487 151.3155 351.7253  6.38665036743893
1  8820U 76039A   19068.77830236 +.00000003 +00000-0 +00000-0 0  9996
2  8820 109.8624 349.4161 0044487 151.2700 116.2857 06.38665036743806
1  8820U 76039A   19069.85578801 +.00000003 +00000-0 +00000-0 0  9993
2  8820 109.8624 349.7854 0044485 151.0389 073.6360 06.38665031743874
1  8820U 76039A   19070.59141102 +.00000002 +00000-0 +00000-0 0  9995
2  8820 109.8624 350.0376 0044483 150.8811 324.9772 06.38665027743923
1  8820U 76039A   19070.80614344  .00000001  00000-0  00000+0 0  9990
2  8820 109.8624 350.1112 0044482 150.8352  98.6889  6.38665027744038
1  8820U 76039A   19071.38118899 +.00000000 +00000-0 +00000-0 0  9998
2  8820 109.8624 350.3083 0044481 150.7106 340.8324 06.38665024743977
1  8820U 76039A   19072.82409955 -.00000004  00000-0  00000+0 0  9998
2  8820 109.8623 350.8028 0044477 150.4040  58.3632  6.38665016744165
1  8820U 76039A   19073.77613088 -.00000006 +00000-0 +00000-0 0  9990
2  8820 109.8623 351.1292 0044475 150.2004 087.2688 06.38665012744122
1  8820U 76039A   19074.82950852 -.00000008  00000-0  00000+0 0  9991
2  8820 109.8623 351.4902 0044471 149.9779 349.1867  6.38665007744294
1  8820U 76039A   19075.90560722 -.00000009 +00000-0 +00000-0 0  9996
2  8820 109.8622 351.8591 0044469 149.7491 303.3461 06.38665003744262
1  8820U 76039A   19076.85599823 -.00000008 +00000-0 +00000-0 0  9994
2  8820 109.8622 352.1848 0044466 149.5455 328.4807 06.38665001744323
1  8820U 76039A   19076.85599823 -.00000008  00000-0  00000+0 0  9993
2  8820 109.8622 352.1848 0044466 149.5455 328.4807  6.38665001744424
1  8820U 76039A   19077.48384010 -.00000007 +00000-0 +00000-0 0  9993
2  8820 109.8622 352.4000 0044465 149.4110 332.0118 06.38665000744361
1  8820U 76039A   19077.79459637 -.00000006 +00000-0 +00000-0 0  9994
2  8820 109.8622 352.5065 0044463 149.3454 326.5002 06.38665000744383
1  8820U 76039A   19078.59414779 -.00000004 +00000-0 +00000-0 0  9999
2  8820 109.8621 352.7806 0044461 149.1730 004.8263 06.38664999744437
1  8820U 76039A   19078.63757241 -.00000004 +00000-0 +00000-0 0  9998
2  8820 109.8621 352.7954 0044461 149.1638 104.6678 06.38664999744437
